ORBCOMM FM103           
1 40091U 14040F   26016.25332735  .00000350  00000+0  11075-3 0  9992
2 40091  47.0054  91.2655 0002045 205.9597 154.1187 14.58600252595203
ORBCOMM FM114           
1 41179U 15081A   26016.26958806  .00000430  00000+0  12774-3 0  9996
2 41179  47.0063   0.1390 0002858 241.0714 118.9885 14.58622274535575
ORBCOMM FM119           
1 41180U 15081B   26016.12985713  .00000260  00000+0  91749-4 0  9991
2 41180  47.0000 270.1594 0001518 299.0270  61.0463 14.58569227536800
ORBCOMM FM105           
1 41181U 15081C   26016.13986415  .00000118  00000+0  77596-4 0  9999
2 41181  47.0020 295.8951 0001777 217.9356 142.1399 14.45440201531557
ORBCOMM FM110           
1 41182U 15081D   26016.25871600  .00000586  00000+0  16086-3 0  9997
2 41182  47.0035 359.6744 0001542  83.5044 276.6017 14.58669346535443
ORBCOMM FM118           
1 41183U 15081E   26016.22496456  .00000520  00000+0  14689-3 0  9992
2 41183  47.0056   0.1409 0002340  30.1071 329.9949 14.58652580535547
ORBCOMM FM112           
1 41184U 15081F   26015.95357119  .00000331  00000+0  10673-3 0  9993
2 41184  46.9988 269.9455 0001870 243.5976 116.4718 14.58653661536722
ORBCOMM FM113           
1 41185U 15081G   26016.06789400  .00000395  00000+0  12018-3 0  9994
2 41185  47.0004 269.7667 0001659 255.3279 104.7423 14.58653498536720
